{
    "links": {
        "self": "http://www.neowsapp.com/rest/v1/neo/3892311?api_key=iIulBulltgU6a56xZRHN4H3l9WmuAYTsLGpBGhQ2"
    },
    "id": "3892311",
    "neo_reference_id": "3892311",
    "name": "(2019 UQ14)",
    "designation": "2019 UQ14",
    "nasa_jpl_url": "http://ssd.jpl.nasa.gov/sbdb.cgi?sstr=3892311",
    "absolute_magnitude_h": 20.6,
    "estimated_diameter": {
        "kilometers": {
            "estimated_diameter_min": 0.2016299194,
            "estimated_diameter_max": 0.4508582062
        },
        "meters": {
            "estimated_diameter_min": 201.6299194428,
            "estimated_diameter_max": 450.8582061718
        },
        "miles": {
            "estimated_diameter_min": 0.1252869847,
            "estimated_diameter_max": 0.2801502144
        },
        "feet": {
            "estimated_diameter_min": 661.5155049046,
            "estimated_diameter_max": 1479.1936371367
        }
    },
    "is_potentially_hazardous_asteroid": false,
    "close_approach_data": [
        {
            "close_approach_date": "2013-04-14",
            "close_approach_date_full": "2013-Apr-14 14:55",
            "epoch_date_close_approach": 1365951300000,
            "relative_velocity": {
                "kilometers_per_second": "9.0183626825",
                "kilometers_per_hour": "32466.1056570163",
                "miles_per_hour": "20173.1754844944"
            },
            "miss_distance": {
                "astronomical": "1.8317237706",
                "lunar": "712.5405467634",
                "kilometers": "274021974.510128622",
                "miles": "170269359.4654821036"
            },
            "orbiting_body": "Juptr"
        },
        {
            "close_approach_date": "2023-04-08",
            "close_approach_date_full": "2023-Apr-08 09:57",
            "epoch_date_close_approach": 1680947820000,
            "relative_velocity": {
                "kilometers_per_second": "37.4882821437",
                "kilometers_per_hour": "134957.8157174521",
                "miles_per_hour": "83857.5383273246"
            },
            "miss_distance": {
                "astronomical": "0.4738173671",
                "lunar": "184.3149558019",
                "kilometers": "70882068.887168077",
                "miles": "44044075.2555783826"
            },
            "orbiting_body": "Earth"
        }
    ],
    "orbital_data": {
        "orbit_id": "3",
        "orbit_determination_date": "2019-11-25 04:55:06",
        "first_observation_date": "2019-10-31",
        "last_observation_date": "2019-11-24",
        "data_arc_in_days": 24,
        "observations_used": 36,
        "orbit_uncertainty": "7",
        "minimum_orbit_intersection": ".317633",
        "jupiter_tisserand_invariant": "2.859",
        "epoch_osculation": "2459000.5",
        "eccentricity": ".7642756356242407",
        "semi_major_axis": "2.415064043153036",
        "inclination": "36.74580734635699",
        "ascending_node_longitude": "63.52955595370875",
        "orbital_period": "1370.854635043062",
        "perihelion_distance": ".5692894364990008",
        "perihelion_argument": "223.1126725721301",
        "aphelion_distance": "4.260838649807072",
        "perihelion_time": "2458701.055979486719",
        "mean_anomaly": "78.6369645833345",
        "mean_motion": ".2626099010043407",
        "equinox": "J2000",
        "orbit_class": {
            "orbit_class_type": "APO",
            "orbit_class_description": "Near-Earth asteroid orbits which cross the Earth’s orbit similar to that of 1862 Apollo",
            "orbit_class_range": "a (semi-major axis) > 1.0 AU; q (perihelion) < 1.017 AU"
        }
    },
    "is_sentry_object": false
}